CCSDS_OMM_VERS = 2.0
CREATION_DATE  = 
ORIGINATOR     = 

OBJECT_NAME    = STARLINK-36545
OBJECT_ID      = 2026-012N
CENTER_NAME    = EARTH
REF_FRAME      = TEME
TIME_SYSTEM    = UTC
MEAN_ELEMENT_THEORY = SGP/SGP4

EPOCH          = 2026-02-15T12:00:01.999296
MEAN_MOTION    = 15.41205892
ECCENTRICITY   = .0000527
INCLINATION    = 43.0007
RA_OF_ASC_NODE = 79.5961
ARG_OF_PERICENTER = 299.3552
MEAN_ANOMALY   = 274.8872

EPHEMERIS_TYPE = 0
CLASSIFICATION_TYPE = U
NORAD_CAT_ID   = 67505
ELEMENT_SET_NO = 999
REV_AT_EPOCH   = 550
BSTAR          = -.52141E-1
MEAN_MOTION_DOT = -.1975343E-1
MEAN_MOTION_DDOT = 0

CCSDS_OMM_VERS = 2.0
CREATION_DATE  = 
ORIGINATOR     = 

OBJECT_NAME    = STARLINK-36553
OBJECT_ID      = 2026-012P
CENTER_NAME    = EARTH
REF_FRAME      = TEME
TIME_SYSTEM    = UTC
MEAN_ELEMENT_THEORY = SGP/SGP4

EPOCH          = 2026-02-15T12:00:01.999296
MEAN_MOTION    = 15.39914278
ECCENTRICITY   = .0001002
INCLINATION    = 42.9999
RA_OF_ASC_NODE = 79.5214
ARG_OF_PERICENTER = 285.6936
MEAN_ANOMALY   = 318.8483

EPHEMERIS_TYPE = 0
CLASSIFICATION_TYPE = U
NORAD_CAT_ID   = 67506
ELEMENT_SET_NO = 999
REV_AT_EPOCH   = 550
BSTAR          = -.50159E-1
MEAN_MOTION_DOT = -.1835612E-1
MEAN_MOTION_DDOT = 0

CCSDS_OMM_VERS = 2.0
CREATION_DATE  = 
ORIGINATOR     = 

OBJECT_NAME    = STARLINK-36521
OBJECT_ID      = 2026-012Q
CENTER_NAME    = EARTH
REF_FRAME      = TEME
TIME_SYSTEM    = UTC
MEAN_ELEMENT_THEORY = SGP/SGP4

EPOCH          = 2026-02-15T12:00:01.999296
MEAN_MOTION    = 15.40402472
ECCENTRICITY   = .0001088
INCLINATION    = 42.9997
RA_OF_ASC_NODE = 79.5003
ARG_OF_PERICENTER = 282.0495
MEAN_ANOMALY   = 331.0585

EPHEMERIS_TYPE = 0
CLASSIFICATION_TYPE = U
NORAD_CAT_ID   = 67507
ELEMENT_SET_NO = 999
REV_AT_EPOCH   = 550
BSTAR          = -.48882E-1
MEAN_MOTION_DOT = -.1819996E-1
MEAN_MOTION_DDOT = 0

CCSDS_OMM_VERS = 2.0
CREATION_DATE  = 
ORIGINATOR     = 

OBJECT_NAME    = STARLINK-36526
OBJECT_ID      = 2026-012R
CENTER_NAME    = EARTH
REF_FRAME      = TEME
TIME_SYSTEM    = UTC
MEAN_ELEMENT_THEORY = SGP/SGP4

EPOCH          = 2026-02-15T12:00:01.999296
MEAN_MOTION    = 15.41143199
ECCENTRICITY   = .0001006
INCLINATION    = 42.9998
RA_OF_ASC_NODE = 79.4708
ARG_OF_PERICENTER = 290.2358
MEAN_ANOMALY   = 334.5060

EPHEMERIS_TYPE = 0
CLASSIFICATION_TYPE = U
NORAD_CAT_ID   = 67508
ELEMENT_SET_NO = 999
REV_AT_EPOCH   = 550
BSTAR          = -.47386E-1
MEAN_MOTION_DOT = -.1809698E-1
MEAN_MOTION_DDOT = 0

CCSDS_OMM_VERS = 2.0
CREATION_DATE  = 
ORIGINATOR     = 

OBJECT_NAME    = STARLINK-36541
OBJECT_ID      = 2026-012S
CENTER_NAME    = EARTH
REF_FRAME      = TEME
TIME_SYSTEM    = UTC
MEAN_ELEMENT_THEORY = SGP/SGP4

EPOCH          = 2026-02-14T10:17:36.591936
MEAN_MOTION    = 15.50639519
ECCENTRICITY   = .00005439
INCLINATION    = 42.9986
RA_OF_ASC_NODE = 86.7186
ARG_OF_PERICENTER = 353.0224
MEAN_ANOMALY   = 7.0629

EPHEMERIS_TYPE = 0
CLASSIFICATION_TYPE = U
NORAD_CAT_ID   = 67509
ELEMENT_SET_NO = 999
REV_AT_EPOCH   = 419
BSTAR          = .12183877E-2
MEAN_MOTION_DOT = .7195E-3
MEAN_MOTION_DDOT = 0

CCSDS_OMM_VERS = 2.0
CREATION_DATE  = 
ORIGINATOR     = 

OBJECT_NAME    = STARLINK-36549
OBJECT_ID      = 2026-012T
CENTER_NAME    = EARTH
REF_FRAME      = TEME
TIME_SYSTEM    = UTC
MEAN_ELEMENT_THEORY = SGP/SGP4

EPOCH          = 2026-02-15T12:00:01.999296
MEAN_MOTION    = 15.38581762
ECCENTRICITY   = .000096
INCLINATION    = 43.0002
RA_OF_ASC_NODE = 79.4023
ARG_OF_PERICENTER = 284.5388
MEAN_ANOMALY   = 4.3202

EPHEMERIS_TYPE = 0
CLASSIFICATION_TYPE = U
NORAD_CAT_ID   = 67510
ELEMENT_SET_NO = 999
REV_AT_EPOCH   = 545
BSTAR          = -.51603E-1
MEAN_MOTION_DOT = -.180968E-1
MEAN_MOTION_DDOT = 0

CCSDS_OMM_VERS = 2.0
CREATION_DATE  = 
ORIGINATOR     = 

OBJECT_NAME    = STARLINK-36540
OBJECT_ID      = 2026-012U
CENTER_NAME    = EARTH
REF_FRAME      = TEME
TIME_SYSTEM    = UTC
MEAN_ELEMENT_THEORY = SGP/SGP4

EPOCH          = 2026-02-14T11:47:58.668000
MEAN_MOTION    = 15.50592337
ECCENTRICITY   = .00033767
INCLINATION    = 43.0023
RA_OF_ASC_NODE = 86.3251
ARG_OF_PERICENTER = 283.9420
MEAN_ANOMALY   = 76.1065

EPHEMERIS_TYPE = 0
CLASSIFICATION_TYPE = U
NORAD_CAT_ID   = 67511
ELEMENT_SET_NO = 999
REV_AT_EPOCH   = 420
BSTAR          = .1608741E-2
MEAN_MOTION_DOT = .95249E-3
MEAN_MOTION_DDOT = 0

CCSDS_OMM_VERS = 2.0
CREATION_DATE  = 
ORIGINATOR     = 

OBJECT_NAME    = STARLINK-36538
OBJECT_ID      = 2026-012V
CENTER_NAME    = EARTH
REF_FRAME      = TEME
TIME_SYSTEM    = UTC
MEAN_ELEMENT_THEORY = SGP/SGP4

EPOCH          = 2026-02-15T12:00:01.999296
MEAN_MOTION    = 15.32341838
ECCENTRICITY   = .000138
INCLINATION    = 43.0002
RA_OF_ASC_NODE = 79.9777
ARG_OF_PERICENTER = 281.8082
MEAN_ANOMALY   = 135.6351

EPHEMERIS_TYPE = 0
CLASSIFICATION_TYPE = U
NORAD_CAT_ID   = 67512
ELEMENT_SET_NO = 999
REV_AT_EPOCH   = 550
BSTAR          = -.61981E-1
MEAN_MOTION_DOT = -.1779882E-1
MEAN_MOTION_DDOT = 0

CCSDS_OMM_VERS = 2.0
CREATION_DATE  = 
ORIGINATOR     = 

OBJECT_NAME    = STARLINK-36531
OBJECT_ID      = 2026-012W
CENTER_NAME    = EARTH
REF_FRAME      = TEME
TIME_SYSTEM    = UTC
MEAN_ELEMENT_THEORY = SGP/SGP4

EPOCH          = 2026-02-15T12:00:01.999296
MEAN_MOTION    = 15.33779557
ECCENTRICITY   = .0001365
INCLINATION    = 42.9998
RA_OF_ASC_NODE = 79.8554
ARG_OF_PERICENTER = 292.6667
MEAN_ANOMALY   = 174.5551

EPHEMERIS_TYPE = 0
CLASSIFICATION_TYPE = U
NORAD_CAT_ID   = 67513
ELEMENT_SET_NO = 999
REV_AT_EPOCH   = 544
BSTAR          = -.59809E-1
MEAN_MOTION_DOT = -.1796131E-1
MEAN_MOTION_DDOT = 0

CCSDS_OMM_VERS = 2.0
CREATION_DATE  = 
ORIGINATOR     = 

OBJECT_NAME    = STARLINK-36530
OBJECT_ID      = 2026-012X
CENTER_NAME    = EARTH
REF_FRAME      = TEME
TIME_SYSTEM    = UTC
MEAN_ELEMENT_THEORY = SGP/SGP4

EPOCH          = 2026-02-15T12:00:01.999296
MEAN_MOTION    = 15.34908821
ECCENTRICITY   = .0001438
INCLINATION    = 43.0002
RA_OF_ASC_NODE = 79.8664
ARG_OF_PERICENTER = 292.1603
MEAN_ANOMALY   = 170.8639

EPHEMERIS_TYPE = 0
CLASSIFICATION_TYPE = U
NORAD_CAT_ID   = 67514
ELEMENT_SET_NO = 999
REV_AT_EPOCH   = 544
BSTAR          = -.57823E-1
MEAN_MOTION_DOT = -.180018E-1
MEAN_MOTION_DDOT = 0

CCSDS_OMM_VERS = 2.0
CREATION_DATE  = 
ORIGINATOR     = 

OBJECT_NAME    = STARLINK-36543
OBJECT_ID      = 2026-012Y
CENTER_NAME    = EARTH
REF_FRAME      = TEME
TIME_SYSTEM    = UTC
MEAN_ELEMENT_THEORY = SGP/SGP4

EPOCH          = 2026-02-15T12:00:01.999296
MEAN_MOTION    = 15.36091945
ECCENTRICITY   = .0001534
INCLINATION    = 43.0004
RA_OF_ASC_NODE = 79.8822
ARG_OF_PERICENTER = 291.9533
MEAN_ANOMALY   = 164.6704

EPHEMERIS_TYPE = 0
CLASSIFICATION_TYPE = U
NORAD_CAT_ID   = 67515
ELEMENT_SET_NO = 999
REV_AT_EPOCH   = 544
BSTAR          = -.55592E-1
MEAN_MOTION_DOT = -.1798474E-1
MEAN_MOTION_DDOT = 0

CCSDS_OMM_VERS = 2.0
CREATION_DATE  = 
ORIGINATOR     = 

OBJECT_NAME    = STARLINK-36537
OBJECT_ID      = 2026-012Z
CENTER_NAME    = EARTH
REF_FRAME      = TEME
TIME_SYSTEM    = UTC
MEAN_ELEMENT_THEORY = SGP/SGP4

EPOCH          = 2026-02-15T12:00:01.999296
MEAN_MOTION    = 15.36193714
ECCENTRICITY   = .0001221
INCLINATION    = 43.0003
RA_OF_ASC_NODE = 79.7103
ARG_OF_PERICENTER = 303.0021
MEAN_ANOMALY   = 222.8085

EPHEMERIS_TYPE = 0
CLASSIFICATION_TYPE = U
NORAD_CAT_ID   = 67516
ELEMENT_SET_NO = 999
REV_AT_EPOCH   = 544
BSTAR          = -.56015E-1
MEAN_MOTION_DOT = -.1816062E-1
MEAN_MOTION_DDOT = 0

