STARLINK-36545          
1 67505U 26012N   26046.50002314 -.01975343  00000+0 -52141-1 0  9994
2 67505  43.0007  79.5961 0000527 299.3552 274.8872 15.41205892  5500
STARLINK-36553          
1 67506U 26012P   26046.50002314 -.01835612  00000+0 -50159-1 0  9996
2 67506  42.9999  79.5214 0001002 285.6936 318.8483 15.39914278  5502
STARLINK-36521          
1 67507U 26012Q   26046.50002314 -.01819996  00000+0 -48882-1 0  9994
2 67507  42.9997  79.5003 0001088 282.0495 331.0585 15.40402472  5502
STARLINK-36526          
1 67508U 26012R   26046.50002314 -.01809698  00000+0 -47386-1 0  9991
2 67508  42.9998  79.4708 0001006 290.2358 334.5060 15.41143199  5509
STARLINK-36541          
1 67509U 26012S   26045.42889574  .00071950  00000+0  12184-2 0  9991
2 67509  42.9986  86.7186 0000543 353.0224   7.0629 15.50639519  4196
STARLINK-36549          
1 67510U 26012T   26046.50002314 -.01809680  00000+0 -51603-1 0  9992
2 67510  43.0002  79.4023 0000960 284.5388   4.3202 15.38581762  5459
STARLINK-36540          
1 67511U 26012U   26045.49165125  .00095249  00000+0  16087-2 0  9993
2 67511  43.0023  86.3251 0003376 283.9420  76.1065 15.50592337  4207
STARLINK-36538          
1 67512U 26012V   26046.50002314 -.01779882  00000+0 -61981-1 0  9994
2 67512  43.0002  79.9777 0001380 281.8082 135.6351 15.32341838  5501
STARLINK-36531          
1 67513U 26012W   26046.50002314 -.01796131  00000+0 -59809-1 0  9997
2 67513  42.9998  79.8554 0001365 292.6667 174.5551 15.33779557  5449
STARLINK-36530          
1 67514U 26012X   26046.50002314 -.01800180  00000+0 -57823-1 0  9992
2 67514  43.0002  79.8664 0001438 292.1603 170.8639 15.34908821  5441
STARLINK-36543          
1 67515U 26012Y   26046.50002314 -.01798474  00000+0 -55592-1 0  9996
2 67515  43.0004  79.8822 0001534 291.9533 164.6704 15.36091945  5442
STARLINK-36537          
1 67516U 26012Z   26046.50002314 -.01816062  00000+0 -56015-1 0  9992
2 67516  43.0003  79.7103 0001221 303.0021 222.8085 15.36193714  5449
